{
  "type": "FeatureCollection",
  "name": "مرافق_البلدية",
  "crs": {
    "type": "name",
    "properties": {
      "name": "urn:ogc:def:crs:OGC:1.3:CRS84"
    }
  },
  "features": [
    {
      "type": "Feature",
      "properties": {
        "اسم_المرفق": "مبنى متعدد الأغراض",
        "نوع_المرفق": "مرفق بلدي",
        "نوع_العنصر": "مرفق بلدي"
      },
      "geometry": {
        "type": "Point",
        "coordinates": [
          34.38620562414382,
          31.420446114360697
        ]
      }
    },
    {
      "type": "Feature",
      "properties": {
        "اسم_المرفق": "كراج البلدية",
        "نوع_المرفق": "مرفق بلدي",
        "نوع_العنصر": "مرفق بلدي"
      },
      "geometry": {
        "type": "Point",
        "coordinates": [
          34.3926241381413,
          31.424130931534364
        ]
      }
    },
    {
      "type": "Feature",
      "properties": {
        "اسم_المرفق": "مبنى البلدية",
        "نوع_المرفق": "مرفق بلدي",
        "نوع_العنصر": "مرفق بلدي"
      },
      "geometry": {
        "type": "Point",
        "coordinates": [
          34.38065233464826,
          31.4279208416575
        ]
      }
    },
    {
      "type": "Feature",
      "properties": {
        "اسم_المرفق": "مخزن البلدية",
        "نوع_المرفق": "مرفق بلدي",
        "نوع_العنصر": "مرفق بلدي"
      },
      "geometry": {
        "type": "Point",
        "coordinates": [
          34.38161182748227,
          31.429443116918744
        ]
      }
    },
    {
      "type": "Feature",
      "properties": {
        "اسم_المرفق": "منتزه البلدية",
        "نوع_المرفق": "مرفق بلدي",
        "نوع_العنصر": "مرفق بلدي"
      },
      "geometry": {
        "type": "Point",
        "coordinates": [
          34.37862303733646,
          31.425261297727737
        ]
      }
    },
    {
      "type": "Feature",
      "properties": {
        "اسم_المرفق": "بئر ومحطة تحلية بحيري",
        "نوع_المرفق": "مرفق بلدي",
        "نوع_العنصر": "مرفق بلدي"
      },
      "geometry": {
        "type": "Point",
        "coordinates": [
          34.40143694648056,
          31.417116507621625
        ]
      }
    },
    {
      "type": "Feature",
      "properties": {
        "اسم_المرفق": "بئر السعايدة",
        "نوع_المرفق": "مرفق بلدي",
        "نوع_العنصر": "مرفق بلدي"
      },
      "geometry": {
        "type": "Point",
        "coordinates": [
          34.39693606893707,
          31.414738436592444
        ]
      }
    },
    {
      "type": "Feature",
      "properties": {
        "اسم_المرفق": "بئر الجود",
        "نوع_المرفق": "مرفق بلدي",
        "نوع_العنصر": "مرفق بلدي"
      },
      "geometry": {
        "type": "Point",
        "coordinates": [
          34.38947968221168,
          31.41698628837302
        ]
      }
    },
    {
      "type": "Feature",
      "properties": {
        "اسم_المرفق": "بئر ومحطة تحلية الصفا",
        "نوع_المرفق": "مرفق بلدي",
        "نوع_العنصر": "مرفق بلدي"
      },
      "geometry": {
        "type": "Point",
        "coordinates": [
          34.38631928716643,
          31.420793985590404
        ]
      }
    },
    {
      "type": "Feature",
      "properties": {
        "اسم_المرفق": "بئر ومحطة تحلية الرحمة",
        "نوع_المرفق": "مرفق بلدي",
        "نوع_العنصر": "مرفق بلدي"
      },
      "geometry": {
        "type": "Point",
        "coordinates": [
          34.37809929664146,
          31.424245119591536
        ]
      }
    },
    {
      "type": "Feature",
      "properties": {
        "اسم_المرفق": "بئر صلاح الدين الأيوبي",
        "نوع_المرفق": "مرفق بلدي",
        "نوع_العنصر": "مرفق بلدي"
      },
      "geometry": {
        "type": "Point",
        "coordinates": [
          34.38054257118143,
          31.427750760560215
        ]
      }
    },
    {
      "type": "Feature",
      "properties": {
        "اسم_المرفق": "بئر خليل الرحمن",
        "نوع_المرفق": "مرفق بلدي",
        "نوع_العنصر": "مرفق بلدي"
      },
      "geometry": {
        "type": "Point",
        "coordinates": [
          34.39038313599945,
          31.426517133379686
        ]
      }
    },
    {
      "type": "Feature",
      "properties": {
        "اسم_المرفق": "بئر وخزان الكوثر",
        "نوع_المرفق": "مرفق بلدي",
        "نوع_العنصر": "مرفق بلدي"
      },
      "geometry": {
        "type": "Point",
        "coordinates": [
          34.39232050203417,
          31.42392929981832
        ]
      }
    },
    {
      "type": "Feature",
      "properties": {
        "اسم_المرفق": "بئر ومحطة تحلية الدوحة",
        "نوع_المرفق": "مرفق بلدي",
        "نوع_العنصر": "مرفق بلدي"
      },
      "geometry": {
        "type": "Point",
        "coordinates": [
          34.38806763196371,
          31.424609162771482
        ]
      }
    },
    {
      "type": "Feature",
      "properties": {
        "اسم_المرفق": "بئر المقبرة",
        "نوع_المرفق": "مرفق بلدي",
        "نوع_العنصر": "مرفق بلدي"
      },
      "geometry": {
        "type": "Point",
        "coordinates": [
          34.3924630477592,
          31.42742118998416
        ]
      }
    },
    {
      "type": "Feature",
      "properties": {
        "اسم_المرفق": "بئر برالوالدين",
        "نوع_المرفق": "مرفق بلدي",
        "نوع_العنصر": "مرفق بلدي"
      },
      "geometry": {
        "type": "Point",
        "coordinates": [
          34.391319415900895,
          31.421042304741288
        ]
      }
    },
    {
      "type": "Feature",
      "properties": {
        "اسم_المرفق": "بئر نماء",
        "نوع_المرفق": "مرفق بلدي",
        "نوع_العنصر": "مرفق بلدي"
      },
      "geometry": {
        "type": "Point",
        "coordinates": [
          34.38195115228267,
          31.422174532190727
        ]
      }
    },
    {
      "type": "Feature",
      "properties": {
        "اسم_المرفق": "بئر سلسبيل",
        "نوع_المرفق": "مرفق بلدي",
        "نوع_العنصر": "مرفق بلدي"
      },
      "geometry": {
        "type": "Point",
        "coordinates": [
          34.38581288763479,
          31.419531672536458
        ]
      }
    },
    {
      "type": "Feature",
      "properties": {
        "اسم_المرفق": "بئر المهاجرين",
        "نوع_المرفق": "مرفق بلدي",
        "نوع_العنصر": "مرفق بلدي"
      },
      "geometry": {
        "type": "Point",
        "coordinates": [
          34.3822210126923,
          31.426051760630134
        ]
      }
    },
    {
      "type": "Feature",
      "properties": {
        "اسم_المرفق": "بئر حاتم الغمري",
        "نوع_المرفق": "مرفق بلدي",
        "نوع_العنصر": "مرفق بلدي"
      },
      "geometry": {
        "type": "Point",
        "coordinates": [
          34.389099676093885,
          31.42199616617642
        ]
      }
    }
  ]
}
