{
  "type": "FeatureCollection",
  "name": "الأحياء",
  "crs": {
    "type": "name",
    "properties": {
      "name": "urn:ogc:def:crs:OGC:1.3:CRS84"
    }
  },
  "features": [
    {
      "type": "Feature",
      "properties": {
        "N": "1",
        "المساحة": "4603 m2",
        "الرقم": "حي رقم 1",
        "اسم_الحي": "الزعفران",
        "SHAPE_Length": 3030.0953576975076,
        "SHAPE_Area": 460353.04101849685,
        "المساحة_م2": 460353.04,
        "المحيط_م": 3030.1,
        "نوع_العنصر": "حي"
      },
      "geometry": {
        "type": "MultiPolygon",
        "coordinates": [
          [
            [
              [
                34.39165848969054,
                31.426639157721038
              ],
              [
                34.392741536267515,
                31.42791909296624
              ],
              [
                34.39307557195258,
                31.428313844267777
              ],
              [
                34.39308376051932,
                31.42832352061714
              ],
              [
                34.393873039164,
                31.428088047519378
              ],
              [
                34.394425036261474,
                31.427932237203894
              ],
              [
                34.394722784217784,
                31.4278796291901
              ],
              [
                34.395119538382225,
                31.427787167603707
              ],
              [
                34.395180418442855,
                31.42777559825661
              ],
              [
                34.39519670704061,
                31.427769183521058
              ],
              [
                34.39529685207351,
                31.427729742628063
              ],
              [
                34.39542590836682,
                31.427668347555997
              ],
              [
                34.395538506464035,
                31.42759893383756
              ],
              [
                34.39584053443496,
                31.427442425219446
              ],
              [
                34.395859604008606,
                31.42743254412441
              ],
              [
                34.39590805492263,
                31.427268127033933
              ],
              [
                34.395909571521486,
                31.42726297985592
              ],
              [
                34.39596470679086,
                31.42722431040399
              ],
              [
                34.39622535650345,
                31.42704150163161
              ],
              [
                34.39739319699301,
                31.426149364595933
              ],
              [
                34.39745538448362,
                31.426071820674302
              ],
              [
                34.39746478094059,
                31.426060105371565
              ],
              [
                34.39875860979085,
                31.425106319685717
              ],
              [
                34.39849166527386,
                31.424746418491907
              ],
              [
                34.39762326246659,
                31.42357559376194
              ],
              [
                34.397453456235375,
                31.42329149621416
              ],
              [
                34.39732247146389,
                31.42310157386421
              ],
              [
                34.397043847496,
                31.42274278291227
              ],
              [
                34.397058904019225,
                31.422733003489544
              ],
              [
                34.397041287579285,
                31.42271040223951
              ],
              [
                34.39701118233515,
                31.422726105737528
              ],
              [
                34.39486070172411,
                31.420857380287973
              ],
              [
                34.39412403590729,
                31.419816092949276
              ],
              [
                34.393800958319396,
                31.419951916198738
              ],
              [
                34.39285435571285,
                31.42030322391235
              ],
              [
                34.392525208287644,
                31.420445445526855
              ],
              [
                34.39237876329275,
                31.420508723403096
              ],
              [
                34.39167898682847,
                31.42077677244375
              ],
              [
                34.39161660927466,
                31.420795884541185
              ],
              [
                34.3914343125551,
                31.42086619372099
              ],
              [
                34.39104720338626,
                31.420819094420363
              ],
              [
                34.3910961881284,
                31.421025615061435
              ],
              [
                34.39114409017582,
                31.421267552391544
              ],
              [
                34.391180627925394,
                31.421432399966996
              ],
              [
                34.39120898851403,
                31.42154054079839
              ],
              [
                34.39126222731626,
                31.421674268862326
              ],
              [
                34.39133109233109,
                31.421908478675846
              ],
              [
                34.39145409641225,
                31.42244055978103
              ],
              [
                34.39160289130303,
                31.42297712331114
              ],
              [
                34.39167476589485,
                31.42320962136641
              ],
              [
                34.39171760031234,
                31.423490195595505
              ],
              [
                34.391718054243306,
                31.423493167349317
              ],
              [
                34.391721129821974,
                31.42350420830937
              ],
              [
                34.391776066649236,
                31.42370146837204
              ],
              [
                34.391802489118334,
                31.42382730087625
              ],
              [
                34.39185716971569,
                31.424087714581404
              ],
              [
                34.39189376229773,
                31.424189764980834
              ],
              [
                34.39196475067088,
                31.42447166841443
              ],
              [
                34.39171290153642,
                31.42468643438922
              ],
              [
                34.391681458986625,
                31.424713246976445
              ],
              [
                34.39143002511181,
                31.4247873768023
              ],
              [
                34.389327822915774,
                31.424892200913543
              ],
              [
                34.38932341332442,
                31.42540023425926
              ],
              [
                34.38936941031948,
                31.42587298255438
              ],
              [
                34.38949270349115,
                31.426095677507384
              ],
              [
                34.38974127263299,
                31.42631201025259
              ],
              [
                34.390173054830626,
                31.426579616371328
              ],
              [
                34.39043881681524,
                31.426738789928873
              ],
              [
                34.39065443130476,
                31.42690480323385
              ],
              [
                34.39073673230045,
                31.427041335902032
              ],
              [
                34.39118045330207,
                31.42689382689529
              ],
              [
                34.39165848969054,
                31.426639157721038
              ]
            ]
          ]
        ]
      }
    },
    {
      "type": "Feature",
      "properties": {
        "N": "2",
        "المساحة": "3808 m2",
        "الرقم": "حي رقم 2",
        "اسم_الحي": "أبو بكر الصديق",
        "SHAPE_Length": 2614.0055596642815,
        "SHAPE_Area": 380810.28010527237,
        "المساحة_م2": 380810.28,
        "المحيط_م": 2614.01,
        "نوع_العنصر": "حي"
      },
      "geometry": {
        "type": "MultiPolygon",
        "coordinates": [
          [
            [
              [
                34.39307557195258,
                31.428313844267777
              ],
              [
                34.392741536267515,
                31.42791909296624
              ],
              [
                34.39165848969054,
                31.426639157721038
              ],
              [
                34.39118045330207,
                31.42689382689529
              ],
              [
                34.39073673230045,
                31.427041335902032
              ],
              [
                34.39065443130476,
                31.42690480323385
              ],
              [
                34.39043881681524,
                31.426738789928873
              ],
              [
                34.390173054830626,
                31.426579616371328
              ],
              [
                34.38974127263299,
                31.42631201025259
              ],
              [
                34.38949270349115,
                31.426095677507384
              ],
              [
                34.38936941031948,
                31.42587298255438
              ],
              [
                34.38932341332442,
                31.42540023425926
              ],
              [
                34.389327822915774,
                31.424892200913543
              ],
              [
                34.38918144244919,
                31.424878920515415
              ],
              [
                34.38859458194898,
                31.424894683345926
              ],
              [
                34.38827904256146,
                31.42488207954315
              ],
              [
                34.38804987368338,
                31.424843668083323
              ],
              [
                34.3879600078684,
                31.42485935293064
              ],
              [
                34.387827768594725,
                31.424985617842108
              ],
              [
                34.387678406424385,
                31.425196282586587
              ],
              [
                34.387526885553726,
                31.425414094022354
              ],
              [
                34.38738433756177,
                31.425619003889675
              ],
              [
                34.38716862984979,
                31.425927688362588
              ],
              [
                34.386955381621476,
                31.42623056673215
              ],
              [
                34.38674711202209,
                31.42652821964608
              ],
              [
                34.38665673002134,
                31.42665597063278
              ],
              [
                34.38659330069902,
                31.42677530626269
              ],
              [
                34.38651890957209,
                31.42685789026172
              ],
              [
                34.386419286861155,
                31.426993956592177
              ],
              [
                34.38630394889402,
                31.427171205289763
              ],
              [
                34.38616812434996,
                31.427393440470045
              ],
              [
                34.38606580043989,
                31.42754128626989
              ],
              [
                34.38594985265363,
                31.427701291976387
              ],
              [
                34.385850109190045,
                31.427849963932587
              ],
              [
                34.385700534041696,
                31.428066904358815
              ],
              [
                34.38547799561954,
                31.428399052257014
              ],
              [
                34.38531452349791,
                31.428628648206736
              ],
              [
                34.385171031027866,
                31.42884162176853
              ],
              [
                34.3850595361548,
                31.42901059325439
              ],
              [
                34.384965847449365,
                31.42914783534627
              ],
              [
                34.38480842539837,
                31.42938131746557
              ],
              [
                34.38461744954942,
                31.429644769342346
              ],
              [
                34.38449647272483,
                31.429816217399896
              ],
              [
                34.38434824431818,
                31.42997161752479
              ],
              [
                34.384211527205544,
                31.43008857795361
              ],
              [
                34.384211435016695,
                31.430088656725527
              ],
              [
                34.38421242028093,
                31.43008940795697
              ],
              [
                34.3847835553913,
                31.430620595242488
              ],
              [
                34.38523499292904,
                31.43097343979979
              ],
              [
                34.38580721577734,
                31.431460744925072
              ],
              [
                34.38597239942718,
                31.431601413050856
              ],
              [
                34.38661009141518,
                31.43215971029319
              ],
              [
                34.38747326219505,
                31.43288510139727
              ],
              [
                34.38876936546546,
                31.43191637973569
              ],
              [
                34.39011532636305,
                31.430767740599087
              ],
              [
                34.39011515774866,
                31.430767535710476
              ],
              [
                34.39040987283918,
                31.430519778480814
              ],
              [
                34.39105476274764,
                31.429959352118747
              ],
              [
                34.392011325203924,
                31.429130498529407
              ],
              [
                34.3925532282456,
                31.428646724436238
              ],
              [
                34.392689317264,
                31.428572652609976
              ],
              [
                34.392791720324105,
                31.428502558079757
              ],
              [
                34.39283758993174,
                31.428409541154583
              ],
              [
                34.39291240466273,
                31.42837593351847
              ],
              [
                34.39307557195258,
                31.428313844267777
              ]
            ]
          ]
        ]
      }
    },
    {
      "type": "Feature",
      "properties": {
        "N": "3",
        "المساحة": "1629 m2",
        "الرقم": "حي رقم 3",
        "اسم_الحي": "الكرامة",
        "SHAPE_Length": 2613.6071197023343,
        "SHAPE_Area": 162927.7980889902,
        "المساحة_م2": 162927.8,
        "المحيط_م": 2613.61,
        "نوع_العنصر": "حي"
      },
      "geometry": {
        "type": "MultiPolygon",
        "coordinates": [
          [
            [
              [
                34.38659330069902,
                31.42677530626269
              ],
              [
                34.38674711202209,
                31.42652821964608
              ],
              [
                34.386955381621476,
                31.42623056673215
              ],
              [
                34.38716862984979,
                31.425927688362588
              ],
              [
                34.38738433756177,
                31.425619003889675
              ],
              [
                34.387526885553726,
                31.425414094022354
              ],
              [
                34.387678406424385,
                31.425196282586587
              ],
              [
                34.387827768594725,
                31.424985617842108
              ],
              [
                34.3879600078684,
                31.42485935293064
              ],
              [
                34.38804987368338,
                31.424843668083323
              ],
              [
                34.38827904256146,
                31.42488207954315
              ],
              [
                34.38859458194898,
                31.424894683345926
              ],
              [
                34.38918144244919,
                31.424878920515415
              ],
              [
                34.389327822915774,
                31.424892200913543
              ],
              [
                34.39143002511181,
                31.4247873768023
              ],
              [
                34.391681458986625,
                31.424713246976445
              ],
              [
                34.39171290153642,
                31.42468643438922
              ],
              [
                34.391801849167514,
                31.424632264761904
              ],
              [
                34.391876300261075,
                31.42457710308445
              ],
              [
                34.39193544530723,
                31.424529941054185
              ],
              [
                34.39198719588246,
                31.42445033512294
              ],
              [
                34.39197933835545,
                31.424428421863087
              ],
              [
                34.39189376229773,
                31.424189764980834
              ],
              [
                34.391802489118334,
                31.42382730087625
              ],
              [
                34.391721129821974,
                31.42350420830937
              ],
              [
                34.39171760032789,
                31.423490193791924
              ],
              [
                34.39167476589485,
                31.42320962136641
              ],
              [
                34.39160289130303,
                31.42297712331114
              ],
              [
                34.39145409641225,
                31.42244055978103
              ],
              [
                34.39133109233109,
                31.421908478675846
              ],
              [
                34.39126222731626,
                31.421674268862326
              ],
              [
                34.39120898851403,
                31.42154054079839
              ],
              [
                34.391180627925394,
                31.421432399966996
              ],
              [
                34.39114409017582,
                31.421267552391544
              ],
              [
                34.3910961881284,
                31.421025615061435
              ],
              [
                34.3910728063087,
                31.42102126943544
              ],
              [
                34.39103539161298,
                31.421014316761738
              ],
              [
                34.39096314356052,
                31.42107050566803
              ],
              [
                34.390930085563944,
                31.421313761549996
              ],
              [
                34.3908787542676,
                31.42150860124723
              ],
              [
                34.39084912251522,
                31.4217899385195
              ],
              [
                34.38991958999351,
                31.421672148486408
              ],
              [
                34.38980665465749,
                31.421744072267092
              ],
              [
                34.39000412356773,
                31.421972055200857
              ],
              [
                34.39018828734051,
                31.422218211127145
              ],
              [
                34.39034857200449,
                31.422375490629854
              ],
              [
                34.39057012425856,
                31.4226248353232
              ],
              [
                34.390736070476805,
                31.422805236644887
              ],
              [
                34.39081926868531,
                31.42286988712837
              ],
              [
                34.39042206984811,
                31.42314538391971
              ],
              [
                34.38973177485862,
                31.42354641954104
              ],
              [
                34.38929461008639,
                31.423790314062433
              ],
              [
                34.38911619380877,
                31.42387315310747
              ],
              [
                34.38883030872142,
                31.423629903221702
              ],
              [
                34.38872102046349,
                31.42341434559035
              ],
              [
                34.38863577490336,
                31.423486284962234
              ],
              [
                34.388508848972286,
                31.423485475757854
              ],
              [
                34.38840588560136,
                31.42338268513855
              ],
              [
                34.38826366018133,
                31.42337189402154
              ],
              [
                34.38772082674149,
                31.423427736346632
              ],
              [
                34.38765610781846,
                31.42343531138974
              ],
              [
                34.38762097900965,
                31.42329963756016
              ],
              [
                34.387561296890894,
                31.423029556751782
              ],
              [
                34.38710290505813,
                31.423207750634035
              ],
              [
                34.38700212893128,
                31.423088596258403
              ],
              [
                34.386346614475706,
                31.42341981528973
              ],
              [
                34.38628739174439,
                31.423325523513718
              ],
              [
                34.3860880482061,
                31.423433815423845
              ],
              [
                34.385651713309755,
                31.422876485102478
              ],
              [
                34.384406249279166,
                31.423648128573863
              ],
              [
                34.38477890937913,
                31.424056951172695
              ],
              [
                34.38491124154207,
                31.42442952175766
              ],
              [
                34.38490916352201,
                31.42466826812987
              ],
              [
                34.384945050007666,
                31.424794909201083
              ],
              [
                34.3849579678573,
                31.424810280798365
              ],
              [
                34.38543458426066,
                31.425377426838
              ],
              [
                34.386128881258855,
                31.426242850682875
              ],
              [
                34.386403264522066,
                31.42655560402874
              ],
              [
                34.38659330069902,
                31.42677530626269
              ]
            ]
          ]
        ]
      }
    },
    {
      "type": "Feature",
      "properties": {
        "N": "4",
        "المساحة": "2847 m2",
        "الرقم": "حي رقم 4",
        "اسم_الحي": "بركة الوز",
        "SHAPE_Length": 2288.1693005525103,
        "SHAPE_Area": 284737.61317461496,
        "المساحة_م2": 284737.61,
        "المحيط_م": 2288.17,
        "نوع_العنصر": "حي"
      },
      "geometry": {
        "type": "MultiPolygon",
        "coordinates": [
          [
            [
              [
                34.384284641443095,
                31.425219307002067
              ],
              [
                34.383865213629036,
                31.42480717401005
              ],
              [
                34.3831249072339,
                31.42379866402922
              ],
              [
                34.38284966567591,
                31.423409815949316
              ],
              [
                34.38229992255488,
                31.422738866860133
              ],
              [
                34.38102543998952,
                31.423756284260595
              ],
              [
                34.38032603922079,
                31.424288552888576
              ],
              [
                34.37984548267736,
                31.42465426788734
              ],
              [
                34.37963405215601,
                31.424831175176386
              ],
              [
                34.37938562380846,
                31.425027455327506
              ],
              [
                34.379110949544454,
                31.42524398363561
              ],
              [
                34.378808981317775,
                31.42548366161684
              ],
              [
                34.37980859567531,
                31.426307144071348
              ],
              [
                34.3808497569959,
                31.4271795665364
              ],
              [
                34.38146358688469,
                31.42772730948985
              ],
              [
                34.38242024900063,
                31.42853546302323
              ],
              [
                34.38262094806481,
                31.428698325910467
              ],
              [
                34.383038844852365,
                31.429077360799788
              ],
              [
                34.383288813687,
                31.429296496150073
              ],
              [
                34.38385376782827,
                31.429815894188476
              ],
              [
                34.384211435016695,
                31.430088656725527
              ],
              [
                34.384211527205544,
                31.43008857795361
              ],
              [
                34.38434824431818,
                31.42997161752479
              ],
              [
                34.38449647272483,
                31.429816217399896
              ],
              [
                34.38461744954942,
                31.429644769342346
              ],
              [
                34.38480842539837,
                31.42938131746557
              ],
              [
                34.384965847449365,
                31.42914783534627
              ],
              [
                34.3850595361548,
                31.42901059325439
              ],
              [
                34.385171031027866,
                31.42884162176853
              ],
              [
                34.38531452349791,
                31.428628648206736
              ],
              [
                34.38547799561954,
                31.428399052257014
              ],
              [
                34.385700534041696,
                31.428066904358815
              ],
              [
                34.385850109190045,
                31.427849963932587
              ],
              [
                34.38594985265363,
                31.427701291976387
              ],
              [
                34.38606580043989,
                31.42754128626989
              ],
              [
                34.38616812434996,
                31.427393440470045
              ],
              [
                34.38630394889402,
                31.427171205289763
              ],
              [
                34.386419286861155,
                31.426993956592177
              ],
              [
                34.38651890957209,
                31.42685789026172
              ],
              [
                34.38659330069902,
                31.42677530626269
              ],
              [
                34.386403264522066,
                31.42655560402874
              ],
              [
                34.386128881258855,
                31.426242850682875
              ],
              [
                34.38543458426066,
                31.425377426838
              ],
              [
                34.3849579678573,
                31.424810280798365
              ],
              [
                34.38495074879429,
                31.42481501980584
              ],
              [
                34.38458675579176,
                31.425053968519382
              ],
              [
                34.3844150221989,
                31.42512408440556
              ],
              [
                34.384284641443095,
                31.425219307002067
              ]
            ]
          ]
        ]
      }
    },
    {
      "type": "Feature",
      "properties": {
        "N": "5",
        "المساحة": "1296 m2",
        "الرقم": "حي رقم 5",
        "اسم_الحي": "الاستقامة",
        "SHAPE_Length": 2036.3587060014509,
        "SHAPE_Area": 129665.43307572592,
        "المساحة_م2": 129665.43,
        "المحيط_م": 2036.36,
        "نوع_العنصر": "حي"
      },
      "geometry": {
        "type": "MultiPolygon",
        "coordinates": [
          [
            [
              [
                34.378808981317775,
                31.42548366161684
              ],
              [
                34.379110949544454,
                31.42524398363561
              ],
              [
                34.37938562380846,
                31.425027455327506
              ],
              [
                34.37963405215601,
                31.424831175176386
              ],
              [
                34.37984548267736,
                31.42465426788734
              ],
              [
                34.38032603922079,
                31.424288552888576
              ],
              [
                34.38004955230411,
                31.4240214371365
              ],
              [
                34.380003929580134,
                31.4240492522203
              ],
              [
                34.379908292367425,
                31.423947212673813
              ],
              [
                34.379898771006886,
                31.42388862443462
              ],
              [
                34.379542986552565,
                31.423422584351847
              ],
              [
                34.3798543835056,
                31.42320867312132
              ],
              [
                34.37941933753791,
                31.422620205828103
              ],
              [
                34.380094029288934,
                31.422182518968658
              ],
              [
                34.381564518610205,
                31.421273686288615
              ],
              [
                34.38216134499102,
                31.420931592265163
              ],
              [
                34.38214033558436,
                31.420863449331062
              ],
              [
                34.381811789121066,
                31.420271610585747
              ],
              [
                34.38180617895191,
                31.420272773115872
              ],
              [
                34.38162243228069,
                31.419703622311342
              ],
              [
                34.38145248760554,
                31.419240510388015
              ],
              [
                34.381359207925286,
                31.41890000773393
              ],
              [
                34.38123226870427,
                31.419083206393324
              ],
              [
                34.38083884731361,
                31.41959177408751
              ],
              [
                34.38079976335939,
                31.41965659453185
              ],
              [
                34.38075377578984,
                31.419717994074826
              ],
              [
                34.380701286840925,
                31.419775432384697
              ],
              [
                34.38064275942882,
                31.419828405593428
              ],
              [
                34.380578705559095,
                31.41987644892783
              ],
              [
                34.38050968840617,
                31.419919139428988
              ],
              [
                34.38023774549898,
                31.4200828454086
              ],
              [
                34.379685739095336,
                31.420305865342993
              ],
              [
                34.3792628986098,
                31.420506227204164
              ],
              [
                34.37900241042331,
                31.420729138203203
              ],
              [
                34.37880719413433,
                31.42106604483816
              ],
              [
                34.37879981092586,
                31.42127180710157
              ],
              [
                34.3789926381391,
                31.421802063211793
              ],
              [
                34.37896521902013,
                31.42202413608891
              ],
              [
                34.37863991433635,
                31.422258725039978
              ],
              [
                34.377669699251946,
                31.422846705176106
              ],
              [
                34.37667634909418,
                31.4233934727751
              ],
              [
                34.37671886770185,
                31.423406018871933
              ],
              [
                34.376802995014906,
                31.423605915797047
              ],
              [
                34.37702604356101,
                31.423814608301868
              ],
              [
                34.37766009138697,
                31.42441256028421
              ],
              [
                34.378196834291145,
                31.42495094616255
              ],
              [
                34.37857006786063,
                31.42527575010826
              ],
              [
                34.378808981317775,
                31.42548366161684
              ]
            ]
          ]
        ]
      }
    },
    {
      "type": "Feature",
      "properties": {
        "N": "6",
        "المساحة": "2536 m2",
        "الرقم": "حي رقم 6",
        "اسم_الحي": "المنطقة التجارية",
        "SHAPE_Length": 3368.094079536728,
        "SHAPE_Area": 253670.4484332052,
        "المساحة_م2": 253670.45,
        "المحيط_م": 3368.09,
        "نوع_العنصر": "حي"
      },
      "geometry": {
        "type": "MultiPolygon",
        "coordinates": [
          [
            [
              [
                34.37667634909418,
                31.4233934727751
              ],
              [
                34.37621194946219,
                31.423256432185706
              ],
              [
                34.37519250628767,
                31.423994796402752
              ],
              [
                34.375474595853305,
                31.424269490031282
              ],
              [
                34.37572687137339,
                31.42451515104589
              ],
              [
                34.37637419647472,
                31.425132828304253
              ],
              [
                34.37701038862239,
                31.425731423173165
              ],
              [
                34.3775890958315,
                31.42630617343131
              ],
              [
                34.37842498667765,
                31.427084989353837
              ],
              [
                34.3790490360806,
                31.427666576431644
              ],
              [
                34.379077723303226,
                31.42769331242998
              ],
              [
                34.37985196754267,
                31.42841486073046
              ],
              [
                34.379995481148185,
                31.428545372092923
              ],
              [
                34.38024244567167,
                31.42876996185214
              ],
              [
                34.381530584660915,
                31.42999437699064
              ],
              [
                34.38277595846798,
                31.431163566526962
              ],
              [
                34.38362925804315,
                31.43197190119331
              ],
              [
                34.38403387131524,
                31.43234742884273
              ],
              [
                34.38522153101484,
                31.433441272118248
              ],
              [
                34.38592831435002,
                31.434076491745344
              ],
              [
                34.38599980610085,
                31.434138239627494
              ],
              [
                34.38616899593285,
                31.43400326401315
              ],
              [
                34.38740422849114,
                31.43293669744791
              ],
              [
                34.38747326219505,
                31.43288510139727
              ],
              [
                34.38661009141518,
                31.43215971029319
              ],
              [
                34.38597239942718,
                31.431601413050856
              ],
              [
                34.38580721577734,
                31.431460744925072
              ],
              [
                34.38523499292904,
                31.43097343979979
              ],
              [
                34.3847835553913,
                31.430620595242488
              ],
              [
                34.38421242028093,
                31.43008940795697
              ],
              [
                34.384211435016695,
                31.430088656725527
              ],
              [
                34.38385376782827,
                31.429815894188476
              ],
              [
                34.383288813687,
                31.429296496150073
              ],
              [
                34.383038844852365,
                31.429077360799788
              ],
              [
                34.38262094806481,
                31.428698325910467
              ],
              [
                34.38242024900063,
                31.42853546302323
              ],
              [
                34.38146358688469,
                31.42772730948985
              ],
              [
                34.3808497569959,
                31.4271795665364
              ],
              [
                34.37980859567531,
                31.426307144071348
              ],
              [
                34.378808981317775,
                31.42548366161684
              ],
              [
                34.37857006786063,
                31.42527575010826
              ],
              [
                34.378196834291145,
                31.42495094616255
              ],
              [
                34.37766009138697,
                31.42441256028421
              ],
              [
                34.37702604356101,
                31.423814608301868
              ],
              [
                34.376802995014906,
                31.423605915797047
              ],
              [
                34.37671886770185,
                31.423406018871933
              ],
              [
                34.37667634909418,
                31.4233934727751
              ]
            ]
          ]
        ]
      }
    },
    {
      "type": "Feature",
      "properties": {
        "N": "7",
        "المساحة": "3288 m2",
        "الرقم": "حي رقم 7",
        "اسم_الحي": "البساتين",
        "SHAPE_Length": 3891.6991242581657,
        "SHAPE_Area": 328875.68421400763,
        "المساحة_م2": 328875.68,
        "المحيط_م": 3891.7,
        "نوع_العنصر": "حي"
      },
      "geometry": {
        "type": "MultiPolygon",
        "coordinates": [
          [
            [
              [
                34.39405806180725,
                31.419722835150168
              ],
              [
                34.392485704629536,
                31.417789210546246
              ],
              [
                34.39131814893735,
                31.416468319045915
              ],
              [
                34.39120965730023,
                31.416399545636466
              ],
              [
                34.39105418844459,
                31.41621687198691
              ],
              [
                34.39077002313257,
                31.415927150701297
              ],
              [
                34.39039024722614,
                31.415515588928255
              ],
              [
                34.39015026955124,
                31.415269211961647
              ],
              [
                34.38993706154107,
                31.415052619541793
              ],
              [
                34.38927671742666,
                31.41545496972127
              ],
              [
                34.3891402113227,
                31.415639575755446
              ],
              [
                34.38907192991914,
                31.415735739786815
              ],
              [
                34.3889476962664,
                31.415995803581392
              ],
              [
                34.388946866792175,
                31.416115473249622
              ],
              [
                34.38908167428881,
                31.416290904175543
              ],
              [
                34.388863081646925,
                31.41649723151449
              ],
              [
                34.38879029338943,
                31.416593372097076
              ],
              [
                34.38868090794296,
                31.416766534450844
              ],
              [
                34.38850912893226,
                31.416891122794734
              ],
              [
                34.388103709562216,
                31.416798331510005
              ],
              [
                34.38780832021299,
                31.416774646167063
              ],
              [
                34.38754772227695,
                31.416844507653764
              ],
              [
                34.38728088166926,
                31.416866824076067
              ],
              [
                34.38691675925343,
                31.416784581574994
              ],
              [
                34.386491092426766,
                31.416683650336477
              ],
              [
                34.38638105634169,
                31.416696866026932
              ],
              [
                34.38630584694872,
                31.41671485381362
              ],
              [
                34.38622490639192,
                31.416785632361
              ],
              [
                34.38621081190386,
                31.41688431247193
              ],
              [
                34.38636398576556,
                31.417134380263793
              ],
              [
                34.38645157950067,
                31.417263436246994
              ],
              [
                34.38643600003743,
                31.417412782493358
              ],
              [
                34.38615800083685,
                31.417447954170328
              ],
              [
                34.38604525083737,
                31.417465748934166
              ],
              [
                34.3859959145796,
                31.417510269941953
              ],
              [
                34.385893281764666,
                31.417615386340675
              ],
              [
                34.38584159633579,
                31.41772076323051
              ],
              [
                34.3856994953918,
                31.417900968356733
              ],
              [
                34.385399213769304,
                31.41799675780053
              ],
              [
                34.38484232315758,
                31.418100261057262
              ],
              [
                34.38463008254057,
                31.418156585237472
              ],
              [
                34.38452243679183,
                31.418211150672516
              ],
              [
                34.3841893952719,
                31.41838457577504
              ],
              [
                34.383948309102635,
                31.418455452093188
              ],
              [
                34.38356565993984,
                31.41836262722374
              ],
              [
                34.383361629372985,
                31.418337336216265
              ],
              [
                34.383209571942174,
                31.418397157759117
              ],
              [
                34.38308153339904,
                31.418491733278355
              ],
              [
                34.38285795779434,
                31.418601212326873
              ],
              [
                34.381929996678856,
                31.418622917247685
              ],
              [
                34.38163704054716,
                31.41869997112129
              ],
              [
                34.381406772334536,
                31.418831361843903
              ],
              [
                34.381359207925286,
                31.41890000773393
              ],
              [
                34.38145248760554,
                31.419240510388015
              ],
              [
                34.38162243228069,
                31.419703622311342
              ],
              [
                34.38180617895191,
                31.420272773115872
              ],
              [
                34.381811789121066,
                31.420271610585747
              ],
              [
                34.382146681006546,
                31.420202177373792
              ],
              [
                34.38266872438128,
                31.41997537696641
              ],
              [
                34.38354901654466,
                31.419650772665335
              ],
              [
                34.384774601846914,
                31.41920956354071
              ],
              [
                34.38530062476983,
                31.41904054899889
              ],
              [
                34.38528220773155,
                31.418882179082605
              ],
              [
                34.38561613223938,
                31.418799538329854
              ],
              [
                34.38572962752419,
                31.41902633814942
              ],
              [
                34.385814735325376,
                31.41910318256505
              ],
              [
                34.38590390409613,
                31.41909244853477
              ],
              [
                34.38596697666436,
                31.419146714166924
              ],
              [
                34.38621992673363,
                31.418935950668626
              ],
              [
                34.386421745374285,
                31.419122392679792
              ],
              [
                34.38663710547227,
                31.41921362283012
              ],
              [
                34.38686398827222,
                31.419076207379682
              ],
              [
                34.38700256710121,
                31.41922412483491
              ],
              [
                34.38674137672441,
                31.4193481934152
              ],
              [
                34.38674392168301,
                31.419418478728584
              ],
              [
                34.38685225889063,
                31.419659708443046
              ],
              [
                34.38669335648248,
                31.419791124889365
              ],
              [
                34.38671335973679,
                31.419829782990373
              ],
              [
                34.38657174265819,
                31.420051101803356
              ],
              [
                34.3871817154231,
                31.41990115016484
              ],
              [
                34.38729045726685,
                31.42040948967545
              ],
              [
                34.3876786360099,
                31.420357524089045
              ],
              [
                34.38821300481543,
                31.4203603261971
              ],
              [
                34.388562129821324,
                31.419373578228576
              ],
              [
                34.38853856052123,
                31.419319898205114
              ],
              [
                34.388792545628625,
                31.418764091897977
              ],
              [
                34.389625083924294,
                31.418789995436104
              ],
              [
                34.389997414269615,
                31.419152769100435
              ],
              [
                34.38982494075078,
                31.41978517850105
              ],
              [
                34.38931477427695,
                31.419741059456378
              ],
              [
                34.38910756586275,
                31.42051304812985
              ],
              [
                34.39003797656574,
                31.42064775731849
              ],
              [
                34.390423527333894,
                31.420716361473023
              ],
              [
                34.3910413261224,
                31.42079431587968
              ],
              [
                34.39104720338626,
                31.420819094420363
              ],
              [
                34.3914343125551,
                31.42086619372099
              ],
              [
                34.39161660927466,
                31.420795884541185
              ],
              [
                34.392525208287644,
                31.420445445526855
              ],
              [
                34.39285435571285,
                31.42030322391235
              ],
              [
                34.393800958319396,
                31.419951916198738
              ],
              [
                34.39412403590729,
                31.419816092949276
              ],
              [
                34.39405806180725,
                31.419722835150168
              ]
            ]
          ]
        ]
      }
    },
    {
      "type": "Feature",
      "properties": {
        "N": "8",
        "المساحة": "4450 m2",
        "الرقم": "حي رقم 8",
        "اسم_الحي": "المنطقة الزراعية",
        "SHAPE_Length": 2848.3180722989478,
        "SHAPE_Area": 445014.0049739092,
        "المساحة_م2": 445014.0,
        "المحيط_م": 2848.32,
        "نوع_العنصر": "حي"
      },
      "geometry": {
        "type": "MultiPolygon",
        "coordinates": [
          [
            [
              [
                34.397058904019225,
                31.422733003489544
              ],
              [
                34.39763420747756,
                31.42235933060747
              ],
              [
                34.397980169761034,
                31.422134616102642
              ],
              [
                34.4002314770676,
                31.420672269430877
              ],
              [
                34.40261193407143,
                31.419125938478942
              ],
              [
                34.40270823469487,
                31.419063380269034
              ],
              [
                34.40244780225169,
                31.41876858789206
              ],
              [
                34.40225411605525,
                31.41856534904206
              ],
              [
                34.40197878470187,
                31.418366890614312
              ],
              [
                34.401818155221285,
                31.418208939668137
              ],
              [
                34.40167086045509,
                31.418044248697615
              ],
              [
                34.40142644958316,
                31.41774336075987
              ],
              [
                34.40129918039515,
                31.417553958005687
              ],
              [
                34.40120381678971,
                31.417401556814927
              ],
              [
                34.401132441863325,
                31.41727000604737
              ],
              [
                34.40113318795843,
                31.417182609127558
              ],
              [
                34.40119619002012,
                31.417061850883883
              ],
              [
                34.40126312052,
                31.416821439423874
              ],
              [
                34.40131773971087,
                31.416503142989814
              ],
              [
                34.40135692538495,
                31.416377938061633
              ],
              [
                34.40137632933686,
                31.416116239026383
              ],
              [
                34.40137790968939,
                31.415930914829776
              ],
              [
                34.40144410117808,
                31.415585538902672
              ],
              [
                34.40150760353997,
                31.415328127581816
              ],
              [
                34.40157342333359,
                31.415125634298914
              ],
              [
                34.401596454156326,
                31.41502158638113
              ],
              [
                34.400298445585584,
                31.414984725748617
              ],
              [
                34.39453256741182,
                31.417384078494166
              ],
              [
                34.393806780137545,
                31.41704701855453
              ],
              [
                34.39250384945673,
                31.4178115253719
              ],
              [
                34.39405806180725,
                31.419722835150168
              ],
              [
                34.39412403590729,
                31.419816092949276
              ],
              [
                34.39486070172411,
                31.420857380287973
              ],
              [
                34.39701118233515,
                31.422726105737528
              ],
              [
                34.397041287579285,
                31.42271040223951
              ],
              [
                34.397058904019225,
                31.422733003489544
              ]
            ]
          ],
          [
            [
              [
                34.397058904019225,
                31.422733003489544
              ],
              [
                34.397043847496,
                31.42274278291227
              ],
              [
                34.39704842955973,
                31.42274868370676
              ],
              [
                34.397058904019225,
                31.422733003489544
              ]
            ]
          ]
        ]
      }
    },
    {
      "type": "Feature",
      "properties": {
        "N": "9",
        "المساحة": "1560 m2",
        "الرقم": "حي رقم 9",
        "اسم_الحي": "المنطقة الصناعية",
        "SHAPE_Length": 1588.6271473385837,
        "SHAPE_Area": 156035.47494463372,
        "المساحة_م2": 156035.47,
        "المحيط_م": 1588.63,
        "نوع_العنصر": "حي"
      },
      "geometry": {
        "type": "MultiPolygon",
        "coordinates": [
          [
            [
              [
                34.40270823469487,
                31.419063380269034
              ],
              [
                34.40318479432758,
                31.418753798427254
              ],
              [
                34.40657681277087,
                31.416370224249462
              ],
              [
                34.405803351447986,
                31.415515119286365
              ],
              [
                34.40553268731023,
                31.415481875418987
              ],
              [
                34.40448183550055,
                31.415067140088652
              ],
              [
                34.403355572946616,
                31.414226251809822
              ],
              [
                34.402929855407265,
                31.414403481099196
              ],
              [
                34.40272117232385,
                31.414606386312926
              ],
              [
                34.40245311585312,
                31.415045906131954
              ],
              [
                34.401596454156326,
                31.41502158638113
              ],
              [
                34.40157342333359,
                31.415125634298914
              ],
              [
                34.40150760353997,
                31.415328127581816
              ],
              [
                34.40144410117808,
                31.415585538902672
              ],
              [
                34.40137790968939,
                31.415930914829776
              ],
              [
                34.40137632933686,
                31.416116239026383
              ],
              [
                34.40135692538495,
                31.416377938061633
              ],
              [
                34.40131773971087,
                31.416503142989814
              ],
              [
                34.40126312052,
                31.416821439423874
              ],
              [
                34.40119619002012,
                31.417061850883883
              ],
              [
                34.40113318795843,
                31.417182609127558
              ],
              [
                34.401132441863325,
                31.41727000604737
              ],
              [
                34.40120381678971,
                31.417401556814927
              ],
              [
                34.40129918039515,
                31.417553958005687
              ],
              [
                34.40142644958316,
                31.41774336075987
              ],
              [
                34.40167086045509,
                31.418044248697615
              ],
              [
                34.401818155221285,
                31.418208939668137
              ],
              [
                34.40197878470187,
                31.418366890614312
              ],
              [
                34.40225411605525,
                31.41856534904206
              ],
              [
                34.40244780225169,
                31.41876858789206
              ],
              [
                34.40270823469487,
                31.419063380269034
              ]
            ]
          ]
        ]
      }
    },
    {
      "type": "Feature",
      "properties": {
        "N": null,
        "المساحة": "1207 m2",
        "الرقم": null,
        "اسم_الحي": "D بلوك",
        "SHAPE_Length": 2026.2936582990549,
        "SHAPE_Area": 120735.4068466177,
        "المساحة_م2": 120735.41,
        "المحيط_م": 2026.29,
        "نوع_العنصر": "حي"
      },
      "geometry": {
        "type": "MultiPolygon",
        "coordinates": [
          [
            [
              [
                34.38728804350329,
                31.420398239094308
              ],
              [
                34.38729495931887,
                31.420396885343095
              ],
              [
                34.38718523757211,
                31.419917616876283
              ],
              [
                34.38728804350329,
                31.420398239094308
              ]
            ]
          ],
          [
            [
              [
                34.387561217358886,
                31.423029268556206
              ],
              [
                34.38756128423236,
                31.42302956118031
              ],
              [
                34.38762097689859,
                31.423299638448544
              ],
              [
                34.38765596934005,
                31.423434786535086
              ],
              [
                34.38765602829365,
                31.42343502229242
              ],
              [
                34.38772074617268,
                31.423427446340852
              ],
              [
                34.38826358064691,
                31.423371605826343
              ],
              [
                34.38840580607428,
                31.423382396041646
              ],
              [
                34.38850876944482,
                31.423485186661015
              ],
              [
                34.388635695375484,
                31.423485995865473
              ],
              [
                34.38872094093542,
                31.423414056493634
              ],
              [
                34.38883022919285,
                31.423629614125055
              ],
              [
                34.38911611427913,
                31.423872864010992
              ],
              [
                34.38929453055626,
                31.423790024966067
              ],
              [
                34.38973169531953,
                31.423546131346686
              ],
              [
                34.390421990307225,
                31.42314509572575
              ],
              [
                34.39081903468021,
                31.422869705273243
              ],
              [
                34.390736070476805,
                31.422805236644887
              ],
              [
                34.39057012425856,
                31.4226248353232
              ],
              [
                34.390566755887235,
                31.422621045114386
              ],
              [
                34.39019072025284,
                31.422220598442358
              ],
              [
                34.39018828734051,
                31.422218211127145
              ],
              [
                34.39000412356773,
                31.421972055200857
              ],
              [
                34.38980665465749,
                31.421744072267092
              ],
              [
                34.38980676464057,
                31.421744001720647
              ],
              [
                34.38980657512737,
                31.42174378317094
              ],
              [
                34.389919511514684,
                31.421671859397005
              ],
              [
                34.390849044033466,
                31.42178964943063
              ],
              [
                34.390878675785935,
                31.421508312158352
              ],
              [
                34.39093000708229,
                31.421313472461144
              ],
              [
                34.39096306507895,
                31.42107021657917
              ],
              [
                34.391035313131226,
                31.42101402767294
              ],
              [
                34.39109611386065,
                31.421025325097585
              ],
              [
                34.391047198120496,
                31.420819095288763
              ],
              [
                34.391041317709636,
                31.420794315826278
              ],
              [
                34.39104124764081,
                31.42079402679087
              ],
              [
                34.39042344884647,
                31.420716073285693
              ],
              [
                34.39003789807955,
                31.420647469130923
              ],
              [
                34.38910763758558,
                31.420512780738225
              ],
              [
                34.38931477427695,
                31.419741059456378
              ],
              [
                34.38982494075078,
                31.41978517850105
              ],
              [
                34.389997414269615,
                31.419152769100435
              ],
              [
                34.389625083924294,
                31.418789995436104
              ],
              [
                34.388792545628625,
                31.418764091897977
              ],
              [
                34.38853856052123,
                31.419319898205114
              ],
              [
                34.388562129821324,
                31.419373578228576
              ],
              [
                34.38821309645835,
                31.420360066147683
              ],
              [
                34.388212925291306,
                31.42036003710002
              ],
              [
                34.387678557539004,
                31.42035723499834
              ],
              [
                34.38729038932866,
                31.420409198848038
              ],
              [
                34.38728804350329,
                31.420398239094308
              ],
              [
                34.387075816864986,
                31.420439784310087
              ],
              [
                34.38759870346218,
                31.42297103736334
              ],
              [
                34.387561217358886,
                31.423029268556206
              ]
            ]
          ]
        ]
      }
    },
    {
      "type": "Feature",
      "properties": {
        "N": null,
        "المساحة": "897 m2",
        "الرقم": null,
        "اسم_الحي": "B بلوك",
        "SHAPE_Length": 1543.9769837572924,
        "SHAPE_Area": 89740.68244033656,
        "المساحة_م2": 89740.68,
        "المحيط_م": 1543.98,
        "نوع_العنصر": "حي"
      },
      "geometry": {
        "type": "MultiPolygon",
        "coordinates": [
          [
            [
              [
                34.38728804350329,
                31.420398239094308
              ],
              [
                34.38718523757211,
                31.419917616876283
              ],
              [
                34.38718170699478,
                31.419901151914768
              ],
              [
                34.38718163589468,
                31.419900861968955
              ],
              [
                34.386571976141596,
                31.420050736242832
              ],
              [
                34.38671335973679,
                31.419829782990373
              ],
              [
                34.38671324182843,
                31.419829554972846
              ],
              [
                34.38671328126142,
                31.41982949480092
              ],
              [
                34.38669340626696,
                31.41979108372223
              ],
              [
                34.38685225889063,
                31.419659708443046
              ],
              [
                34.386852143351376,
                31.41965944977805
              ],
              [
                34.38685217936341,
                31.419659420246962
              ],
              [
                34.386743917489454,
                31.41941835605087
              ],
              [
                34.38674137672441,
                31.4193481934152
              ],
              [
                34.38700256710121,
                31.41922412483491
              ],
              [
                34.38700235557902,
                31.41922389892593
              ],
              [
                34.38686398827222,
                31.419076207379682
              ],
              [
                34.38663710547227,
                31.41921362283012
              ],
              [
                34.386421745374285,
                31.419122392679792
              ],
              [
                34.38621992673363,
                31.418935950668626
              ],
              [
                34.38596697666436,
                31.419146714166924
              ],
              [
                34.38590390409613,
                31.41909244853477
              ],
              [
                34.385814735325376,
                31.41910318256505
              ],
              [
                34.38572962752419,
                31.41902633814942
              ],
              [
                34.38561613223938,
                31.418799538329854
              ],
              [
                34.38528220773155,
                31.418882179082605
              ],
              [
                34.38530062476983,
                31.41904054899889
              ],
              [
                34.384774601846914,
                31.41920956354071
              ],
              [
                34.38354901654466,
                31.419650772665335
              ],
              [
                34.38266872438128,
                31.41997537696641
              ],
              [
                34.382146681006546,
                31.420202177373792
              ],
              [
                34.38181186181447,
                31.42027159572115
              ],
              [
                34.381811789121066,
                31.420271610585747
              ],
              [
                34.38214033980648,
                31.42086344755448
              ],
              [
                34.38216126233029,
                31.42093130314442
              ],
              [
                34.382161315396814,
                31.420931609210278
              ],
              [
                34.38216252684494,
                31.420938725323648
              ],
              [
                34.38296964346761,
                31.422156192907213
              ],
              [
                34.38299727027493,
                31.42219786480677
              ],
              [
                34.38299972206568,
                31.422201563659332
              ],
              [
                34.384727660493986,
                31.420899417030128
              ],
              [
                34.387075816864986,
                31.420439784310087
              ],
              [
                34.38728804350329,
                31.420398239094308
              ]
            ]
          ]
        ]
      }
    },
    {
      "type": "Feature",
      "properties": {
        "N": null,
        "المساحة": "1324 m2",
        "الرقم": null,
        "اسم_الحي": "C بلوك",
        "SHAPE_Length": 1777.7890762908899,
        "SHAPE_Area": 132454.79781106845,
        "المساحة_م2": 132454.8,
        "المحيط_م": 1777.79,
        "نوع_العنصر": "حي"
      },
      "geometry": {
        "type": "MultiPolygon",
        "coordinates": [
          [
            [
              [
                34.382302931431,
                31.422740188431636
              ],
              [
                34.3828495851222,
                31.42340952594073
              ],
              [
                34.383124825627384,
                31.423798374014055
              ],
              [
                34.383865132011586,
                31.424806884897144
              ],
              [
                34.38428455983188,
                31.42521901698764
              ],
              [
                34.38441494058734,
                31.425123794391176
              ],
              [
                34.38458667523139,
                31.42505367851185
              ],
              [
                34.38495778257177,
                31.424810060465013
              ],
              [
                34.384945050007666,
                31.424794909201083
              ],
              [
                34.38494496839474,
                31.424794619187033
              ],
              [
                34.38490916352987,
                31.424668267228082
              ],
              [
                34.38490908189362,
                31.424667979919374
              ],
              [
                34.3849111604477,
                31.424429293072293
              ],
              [
                34.38477890937913,
                31.424056951172695
              ],
              [
                34.384406249279166,
                31.423648128573863
              ],
              [
                34.38440636664549,
                31.4236480562757
              ],
              [
                34.3844061676688,
                31.423647838559443
              ],
              [
                34.38565163273212,
                31.42287619689908
              ],
              [
                34.386087967634516,
                31.423433526318917
              ],
              [
                34.38628731117226,
                31.423325234408907
              ],
              [
                34.386346533903335,
                31.423419526184944
              ],
              [
                34.38700204835713,
                31.423088307153986
              ],
              [
                34.387102825535194,
                31.423207461536396
              ],
              [
                34.387561217358886,
                31.423029268556206
              ],
              [
                34.38759870346218,
                31.42297103736334
              ],
              [
                34.387075816864986,
                31.420439784310087
              ],
              [
                34.384727660493986,
                31.420899417030128
              ],
              [
                34.38299972206568,
                31.422201563659332
              ],
              [
                34.38299727027493,
                31.42219786480677
              ],
              [
                34.382302931431,
                31.422740188431636
              ]
            ]
          ]
        ]
      }
    },
    {
      "type": "Feature",
      "properties": {
        "N": null,
        "المساحة": "4151 m2",
        "الرقم": null,
        "اسم_الحي": "A بلوك",
        "SHAPE_Length": 1069.3554381703782,
        "SHAPE_Area": 61516.2764336653,
        "المساحة_م2": 61516.28,
        "المحيط_م": 1069.36,
        "نوع_العنصر": "حي"
      },
      "geometry": {
        "type": "MultiPolygon",
        "coordinates": [
          [
            [
              [
                34.380325957622546,
                31.42428826287179
              ],
              [
                34.38032583481276,
                31.424288355873557
              ],
              [
                34.38032603922079,
                31.424288552888576
              ],
              [
                34.38102543998952,
                31.423756284260595
              ],
              [
                34.38205657833176,
                31.422933128795886
              ],
              [
                34.38230175815898,
                31.422741107096638
              ],
              [
                34.382301853457555,
                31.422741032855107
              ],
              [
                34.382302931431,
                31.422740188431636
              ],
              [
                34.38299727027493,
                31.42219786480677
              ],
              [
                34.38296964346761,
                31.422156192907213
              ],
              [
                34.38216252684494,
                31.420938725323648
              ],
              [
                34.382161315396814,
                31.420931609210278
              ],
              [
                34.381564518610205,
                31.421273686288615
              ],
              [
                34.380094029288934,
                31.422182518968658
              ],
              [
                34.379419427438364,
                31.422620147787203
              ],
              [
                34.37985430190967,
                31.423208383104228
              ],
              [
                34.379854214088475,
                31.423208443864382
              ],
              [
                34.37954290495743,
                31.423422294334596
              ],
              [
                34.379543078604314,
                31.42342252091365
              ],
              [
                34.3798986894024,
                31.42388833531937
              ],
              [
                34.37989872733578,
                31.42388856733738
              ],
              [
                34.379898771006886,
                31.42388862443462
              ],
              [
                34.379908252449155,
                31.423946967115373
              ],
              [
                34.38000384797518,
                31.42404896310513
              ],
              [
                34.38004947069905,
                31.424021148021332
              ],
              [
                34.380325957622546,
                31.42428826287179
              ]
            ]
          ]
        ]
      }
    }
  ]
}