{
  "type": "FeatureCollection",
  "name": "المرافق_العامة",
  "crs": {
    "type": "name",
    "properties": {
      "name": "urn:ogc:def:crs:OGC:1.3:CRS84"
    }
  },
  "features": [
    {
      "type": "Feature",
      "properties": {
        "اسم_المرفق": "مسجد الزعفران",
        "نوع_المرفق": "ديني",
       
        "نوع_العنصر": "مرفق عام"
      },
      "geometry": {
        "type": "Point",
        "coordinates": [
          34.392822676367395,
          31.42519190844664
        ]
      }
    },
    {
      "type": "Feature",
      "properties": {
        "اسم_المرفق": "مسجد الكبير",
        "نوع_المرفق": "ديني",
        "نوع_العنصر": "مرفق عام"
      },
      "geometry": {
        "type": "Point",
        "coordinates": [
          34.385656179353575,
          31.420456948555227
        ]
      }
    },
    {
      "type": "Feature",
      "properties": {
        "اسم_المرفق": "مسجد حسني المصدر ",
        "نوع_المرفق": "ديني",
       
        "نوع_العنصر": "مرفق عام"
      },
      "geometry": {
        "type": "Point",
        "coordinates": [
          34.39051981171496,
          31.41719583554012
        ]
      }
    },
    {
      "type": "Feature",
      "properties": {
        "اسم_المرفق": "مسجد الاستقامة",
        "نوع_المرفق": "ديني",
     
        "نوع_العنصر": "مرفق عام"
      },
      "geometry": {
        "type": "Point",
        "coordinates": [
          34.38018290267137,
          31.422033921780244
        ]
      }
    },
    {
      "type": "Feature",
      "properties": {
        "اسم_المرفق": "مسجد المهاجرين",
        "نوع_المرفق": "ديني",
   
        "نوع_العنصر": "مرفق عام"
      },
      "geometry": {
        "type": "Point",
        "coordinates": [
          34.38236396612433,
          31.42609427160898
        ]
      }
    },
    {
      "type": "Feature",
      "properties": {
        "اسم_المرفق": "مسجد الانصار ",
        "نوع_المرفق": "ديني",
   
        "نوع_العنصر": "مرفق عام"
      },
      "geometry": {
        "type": "Point",
        "coordinates": [
          34.38378862996713,
          31.42783501812626
        ]
      }
    },
    {
      "type": "Feature",
      "properties": {
        "اسم_المرفق": "مسجد ابو بكر الصديق",
        "نوع_المرفق": "ديني",
    
        "نوع_العنصر": "مرفق عام"
      },
      "geometry": {
        "type": "Point",
        "coordinates": [
          34.389368628827484,
          31.42927616791588
        ]
      }
    },
    {
      "type": "Feature",
      "properties": {
        "اسم_المرفق": "مسجد الدعوة ",
        "نوع_المرفق": "ديني",
       
        "نوع_العنصر": "مرفق عام"
      },
      "geometry": {
        "type": "Point",
        "coordinates": [
          34.38199042007942,
          31.42278173771136
        ]
      }
    },
    {
      "type": "Feature",
      "properties": {
        "اسم_المرفق": "مسجد الفلاح",
        "نوع_المرفق": "ديني",
   
        "نوع_العنصر": "مرفق عام"
      },
      "geometry": {
        "type": "Point",
        "coordinates": [
          34.384839379688025,
          31.42479609693737
        ]
      }
    },
    {
      "type": "Feature",
      "properties": {
        "اسم_المرفق": "مسجد مصباح الصوري ",
        "نوع_المرفق": "ديني",
   
        "نوع_العنصر": "مرفق عام"
      },
      "geometry": {
        "type": "Point",
        "coordinates": [
          34.38405932744739,
          31.422256108982737
        ]
      }
    },
    {
      "type": "Feature",
      "properties": {
        "اسم_المرفق": "مسجد يحيى عياش ",
        "نوع_المرفق": "ديني",
       
        "نوع_العنصر": "مرفق عام"
      },
      "geometry": {
        "type": "Point",
        "coordinates": [
          34.38557224714313,
          31.422437511696376
        ]
      }
    },
    {
      "type": "Feature",
      "properties": {
        "اسم_المرفق": "مسجد الشهداء ",
        "نوع_المرفق": "ديني",
     
        "نوع_العنصر": "مرفق عام"
      },
      "geometry": {
        "type": "Point",
        "coordinates": [
          34.38647665909756,
          31.421338607705856
        ]
      }
    },
    {
      "type": "Feature",
      "properties": {
        "اسم_المرفق": "مسجد الصحابة ",
        "نوع_المرفق": "ديني",
      
        "نوع_العنصر": "مرفق عام"
      },
      "geometry": {
        "type": "Point",
        "coordinates": [
          34.38790144665894,
          31.42354543356564
        ]
      }
    },
    {
      "type": "Feature",
      "properties": {
        "اسم_المرفق": "مسجد الاستجابة ",
        "نوع_المرفق": "ديني",
      
        "نوع_العنصر": "مرفق عام"
      },
      "geometry": {
        "type": "Point",
        "coordinates": [
          34.39052174647631,
          31.421165400626915
        ]
      }
    },
    {
      "type": "Feature",
      "properties": {
        "اسم_المرفق": "مسجد الابرار",

        "نوع_العنصر": "مرفق عام"
      },
      "geometry": {
        "type": "Point",
        "coordinates": [
          34.401670118106004,
          31.417520921675877
        ]
      }
    },
    {
      "type": "Feature",
      "properties": {
        "اسم_المرفق": "مسجد أحمد ياسين",
        "نوع_المرفق": "ديني",
       
        "نوع_العنصر": "مرفق عام"
      },
      "geometry": {
        "type": "Point",
        "coordinates": [
          34.389398440921404,
          31.421230788644273
        ]
      }
    },
    {
      "type": "Feature",
      "properties": {
        "اسم_المرفق": "مصلي الحواطي",
        "نوع_المرفق": "ديني",
   
        "نوع_العنصر": "مرفق عام"
      },
      "geometry": {
        "type": "Point",
        "coordinates": [
          34.37995154650217,
          31.423393655725093
        ]
      }
    },
    {
      "type": "Feature",
      "properties": {
        "اسم_المرفق": "مدرسة مريم بنت عمران",
        "نوع_المرفق": "تعليمي",
      
        "نوع_العنصر": "مرفق عام"
      },
      "geometry": {
        "type": "Point",
        "coordinates": [
          34.38716465833632,
          31.426912215028036
        ]
      }
    },
    {
      "type": "Feature",
      "properties": {
        "اسم_المرفق": "مدرسة شهداء المغازي",
        "نوع_المرفق": "تعليمي",
   
        "نوع_العنصر": "مرفق عام"
      },
      "geometry": {
        "type": "Point",
        "coordinates": [
          34.387428736484786,
          31.42715423104802
        ]
      }
    },
    {
      "type": "Feature",
      "properties": {
        "اسم_المرفق": "مدرسة المغازي الاعدادية بنات",
        "نوع_المرفق": "تعليمي",
    
        "نوع_العنصر": "مرفق عام"
      },
      "geometry": {
        "type": "Point",
        "coordinates": [
          34.38870454244205,
          31.421664412160517
        ]
      }
    },
    {
      "type": "Feature",
      "properties": {
        "اسم_المرفق": "مدرسة المغازي الابتدائية المشتركة",
        "نوع_المرفق": "تعليمي",
    
        "نوع_العنصر": "مرفق عام"
      },
      "geometry": {
        "type": "Point",
        "coordinates": [
          34.38513973234867,
          31.42132359270746
        ]
      }
    },
    {
      "type": "Feature",
      "properties": {
        "اسم_المرفق": "مدرسة ذكور المغازي الاعدادية",
        "نوع_المرفق": "تعليمي",
       
        "نوع_العنصر": "مرفق عام"
      },
      "geometry": {
        "type": "Point",
        "coordinates": [
          34.388814434727344,
          31.420135199076785
        ]
      }
    },
    {
      "type": "Feature",
      "properties": {
        "اسم_المرفق": "مدرسة ذكور المغازي الابتدائية",
        "نوع_المرفق": "تعليمي",
      
        "نوع_العنصر": "مرفق عام"
      },
      "geometry": {
        "type": "Point",
        "coordinates": [
          34.38879237879053,
          31.41954112136562
        ]
      }
    },
    {
      "type": "Feature",
      "properties": {
        "اسم_المرفق": "مدرسة ذكور المغازي الاعدادية",
        "نوع_المرفق": "تعليمي",
   
        "نوع_العنصر": "مرفق عام"
      },
      "geometry": {
        "type": "Point",
        "coordinates": [
          34.38954052036457,
          31.419288039818166
        ]
      }
    },
    {
      "type": "Feature",
      "properties": {
        "اسم_المرفق": "عيادة وكالة الغوث الدولية",
        "نوع_المرفق": "صحي",
    
        "نوع_العنصر": "مرفق عام"
      },
      "geometry": {
        "type": "Point",
        "coordinates": [
          34.38939755957874,
          31.42010215793538
        ]
      }
    },
    {
      "type": "Feature",
      "properties": {
        "اسم_المرفق": "مستوصف شهداء المغازي",
        "نوع_المرفق": "صحي",
       
        "نوع_العنصر": "مرفق عام"
      },
      "geometry": {
        "type": "Point",
        "coordinates": [
          34.38824269224921,
          31.424568831734376
        ]
      }
    },
    {
      "type": "Feature",
      "properties": {
        "اسم_المرفق": "مركز الصلاح الطبي",
        "نوع_المرفق": "صحي",
     
        "نوع_العنصر": "مرفق عام"
      },
      "geometry": {
        "type": "Point",
        "coordinates": [
          34.38538284851384,
          31.42175945034229
        ]
      }
    },
    {
      "type": "Feature",
      "properties": {
        "اسم_المرفق": "جمعية الصلاح الاسلامية",
        "نوع_المرفق": "اجتماعي",
  
        "نوع_العنصر": "مرفق عام"
      },
      "geometry": {
        "type": "Point",
        "coordinates": [
          34.382279142608546,
          31.42613037729356
        ]
      }
    },
    {
      "type": "Feature",
      "properties": {
        "اسم_المرفق": "نادي خدمات المغازي",
        "نوع_المرفق": "رياضي",
  
        "نوع_العنصر": "مرفق عام"
      },
      "geometry": {
        "type": "Point",
        "coordinates": [
          34.38583289053273,
          31.421200366430508
        ]
      }
    },
    {
      "type": "Feature",
      "properties": {
        "اسم_المرفق": "نادي شباب المغازي",
        "نوع_المرفق": "رياضي",
        
        "نوع_العنصر": "مرفق عام"
      },
      "geometry": {
        "type": "Point",
        "coordinates": [
          34.389444187404315,
          31.426675298673803
        ]
      }
    },
    {
      "type": "Feature",
      "properties": {
        "اسم_المرفق": "جمعية مركز المغازي الثقافي",
        "نوع_المرفق": "اجتماعي",
        
        "نوع_العنصر": "مرفق عام"
      },
      "geometry": {
        "type": "Point",
        "coordinates": [
          34.37791334071497,
          31.424927260928587
        ]
      }
    },
    {
      "type": "Feature",
      "properties": {
        "اسم_المرفق": "جمعية مركز براعم الماهر",
        "نوع_المرفق": "اجتماعي",
     
        "نوع_العنصر": "مرفق عام"
      },
      "geometry": {
        "type": "Point",
        "coordinates": [
          34.3886468220008,
          31.42214465138451
        ]
      }
    },
    {
      "type": "Feature",
      "properties": {
        "اسم_المرفق": "جمعية براعم الأمل والمحبة",
        "نوع_المرفق": "اجتماعي",
    
        "نوع_العنصر": "مرفق عام"
      },
      "geometry": {
        "type": "Point",
        "coordinates": [
          34.38958662887539,
          31.420274405449216
        ]
      }
    }
  ]
}
