{
  "type": "FeatureCollection",
  "name": "entrances",
  "features": [
    {
      "type": "Feature",
      "properties": {
        "Id": 0,
        "Shape_Length": 7323.52873890656,
        "اسم_المدخل": "الخط الأصفر",
        "الاسم": "الخط الأصفر",
        "نوع_العنصر": "مدخل"
      },
      "geometry": {
        "type": "LineString",
        "coordinates": [
          [
            34.37206459257811,
            31.402647885087926
          ],
          [
            34.38274789733889,
            31.414064112154247
          ],
          [
            34.38313949761744,
            31.41462736567602
          ],
          [
            34.38433003429168,
            31.41643055903973
          ],
          [
            34.38550996736373,
            31.41822929415587
          ],
          [
            34.386442920612424,
            31.41801264710175
          ],
          [
            34.39085969049816,
            31.417567120424135
          ],
          [
            34.393950018429955,
            31.42079491358489
          ],
          [
            34.40101299619599,
            31.427576505214134
          ],
          [
            34.40912578737748,
            31.43184608327722
          ],
          [
            34.41228508179328,
            31.43617040173751
          ],
          [
            34.414736917725726,
            31.438488165052345
          ],
          [
            34.41175960433481,
            31.445365704300315
          ],
          [
            34.407523843290306,
            31.44876383794224
          ]
        ]
      }
    }
  ]
}
